{
  "type": "FeatureCollection",
  "features": [
    {
      "type": "Feature",
      "properties": {
        "norad_id": 34852,
        "name": "COSMOS 2251 DEB",
        "group": "cosmos-2251-debris",
        "lat": -50.190373593968374,
        "lon": -121.58356628630528,
        "alt_km": 768.1158142320446,
        "timestamp": "2025-12-15T04:01:20.847301+00:00",
        "meta_object_name": "COSMOS 2251 DEB",
        "meta_object_id": "1993-036ABW",
        "meta_epoch": "2025-12-14T03:12:21.572928",
        "meta_mean_motion": 14.37006315,
        "meta_eccentricity": 0.00162682,
        "meta_inclination": 74.033,
        "meta_ra_of_asc_node": 260.4088,
        "meta_arg_of_pericenter": 3.2722,
        "meta_mean_anomaly": 356.8534,
        "meta_ephemeris_type": 0,
        "meta_classification_type": "U",
        "meta_norad_cat_id": 34852,
        "meta_element_set_no": 999,
        "meta_rev_at_epoch": 87554,
        "meta_bstar": 0.00015722406,
        "meta_mean_motion_dot": 4.4e-06,
        "meta_mean_motion_ddot": 0,
        "tle_line1": "1 34852U 93036ABW 25348.13358302  .00000440  00000+0  15722-3 0  9997",
        "tle_line2": "2 34852  74.0330 260.4088 0016268   3.2722 356.8534 14.37006315875541"
      },
      "geometry": {
        "type": "Point",
        "coordinates": [
          -121.58356628630528,
          -50.190373593968374
        ]
      }
    },
    {
      "type": "Feature",
      "properties": {
        "norad_id": 34854,
        "name": "COSMOS 2251 DEB",
        "group": "cosmos-2251-debris",
        "lat": -15.696096275557382,
        "lon": -21.558799585206962,
        "alt_km": 627.1730620712378,
        "timestamp": "2025-12-15T04:01:20.847311+00:00",
        "meta_object_name": "COSMOS 2251 DEB",
        "meta_object_id": "1993-036ABY",
        "meta_epoch": "2025-12-12T18:13:14.177568",
        "meta_mean_motion": 14.76625947,
        "meta_eccentricity": 0.00661438,
        "meta_inclination": 74.0288,
        "meta_ra_of_asc_node": 158.5442,
        "meta_arg_of_pericenter": 270.2181,
        "meta_mean_anomaly": 89.1414,
        "meta_ephemeris_type": 0,
        "meta_classification_type": "U",
        "meta_norad_cat_id": 34854,
        "meta_element_set_no": 999,
        "meta_rev_at_epoch": 71882,
        "meta_bstar": 0.0010403851,
        "meta_mean_motion_dot": 7.508e-05,
        "meta_mean_motion_ddot": 0,
        "tle_line1": "1 34854U 93036ABY 25346.75919187  .00007508  00000+0  10404-2 0  9992",
        "tle_line2": "2 34854  74.0288 158.5442 0066143 270.2181  89.1414 14.76625947718829"
      },
      "geometry": {
        "type": "Point",
        "coordinates": [
          -21.558799585206962,
          -15.696096275557382
        ]
      }
    },
    {
      "type": "Feature",
      "properties": {
        "norad_id": 34856,
        "name": "COSMOS 2251 DEB",
        "group": "cosmos-2251-debris",
        "lat": 11.349103013010595,
        "lon": -103.44556307013927,
        "alt_km": 534.096375791295,
        "timestamp": "2025-12-15T04:01:20.847322+00:00",
        "meta_object_name": "COSMOS 2251 DEB",
        "meta_object_id": "1993-036ACA",
        "meta_epoch": "2025-12-14T08:29:05.405856",
        "meta_mean_motion": 15.06182181,
        "meta_eccentricity": 0.00327011,
        "meta_inclination": 73.9959,
        "meta_ra_of_asc_node": 81.5308,
        "meta_arg_of_pericenter": 219.493,
        "meta_mean_anomaly": 216.5961,
        "meta_ephemeris_type": 0,
        "meta_classification_type": "U",
        "meta_norad_cat_id": 34856,
        "meta_element_set_no": 999,
        "meta_rev_at_epoch": 89136,
        "meta_bstar": 0.0020040761,
        "meta_mean_motion_dot": 0.000298,
        "meta_mean_motion_ddot": 0,
        "tle_line1": "1 34856U 93036ACA 25348.35353479  .00029800  00000+0  20041-2 0  9995",
        "tle_line2": "2 34856  73.9959  81.5308 0032701 219.4930 216.5961 15.06182181891366"
      },
      "geometry": {
        "type": "Point",
        "coordinates": [
          -103.44556307013927,
          11.349103013010595
        ]
      }
    },
    {
      "type": "Feature",
      "properties": {
        "norad_id": 34857,
        "name": "COSMOS 2251 DEB",
        "group": "cosmos-2251-debris",
        "lat": 51.9366390208451,
        "lon": -99.27466024044914,
        "alt_km": 700.22501270059,
        "timestamp": "2025-12-15T04:01:20.847332+00:00",
        "meta_object_name": "COSMOS 2251 DEB",
        "meta_object_id": "1993-036ACB",
        "meta_epoch": "2025-12-14T03:00:54.748224",
        "meta_mean_motion": 14.58912788,
        "meta_eccentricity": 0.00657914,
        "meta_inclination": 74.0151,
        "meta_ra_of_asc_node": 104.1848,
        "meta_arg_of_pericenter": 228.4085,
        "meta_mean_anomaly": 186.9923,
        "meta_ephemeris_type": 0,
        "meta_classification_type": "U",
        "meta_norad_cat_id": 34857,
        "meta_element_set_no": 999,
        "meta_rev_at_epoch": 87921,
        "meta_bstar": 0.0013003989,
        "meta_mean_motion_dot": 6.254e-05,
        "meta_mean_motion_ddot": 0,
        "tle_line1": "1 34857U 93036ACB 25348.12563366  .00006254  00000+0  13004-2 0  9998",
        "tle_line2": "2 34857  74.0151 104.1848 0065791 228.4085 186.9923 14.58912788879218"
      },
      "geometry": {
        "type": "Point",
        "coordinates": [
          -99.27466024044914,
          51.9366390208451
        ]
      }
    },
    {
      "type": "Feature",
      "properties": {
        "norad_id": 34859,
        "name": "COSMOS 2251 DEB",
        "group": "cosmos-2251-debris",
        "lat": -27.433349236239785,
        "lon": 163.15514572616615,
        "alt_km": 525.9415909241634,
        "timestamp": "2025-12-15T04:01:20.847342+00:00",
        "meta_object_name": "COSMOS 2251 DEB",
        "meta_object_id": "1993-036ACD",
        "meta_epoch": "2025-12-13T10:27:28.319616",
        "meta_mean_motion": 15.14950815,
        "meta_eccentricity": 0.00020891,
        "meta_inclination": 74.0317,
        "meta_ra_of_asc_node": 338.2099,
        "meta_arg_of_pericenter": 342.6349,
        "meta_mean_anomaly": 143.1101,
        "meta_ephemeris_type": 0,
        "meta_classification_type": "U",
        "meta_norad_cat_id": 34859,
        "meta_element_set_no": 999,
        "meta_rev_at_epoch": 88369,
        "meta_bstar": 0.0080515741,
        "meta_mean_motion_dot": 0.00153394,
        "meta_mean_motion_ddot": 0,
        "tle_line1": "1 34859U 93036ACD 25347.43574444  .00153394  00000+0  80516-2 0  9992",
        "tle_line2": "2 34859  74.0317 338.2099 0002089 342.6349 143.1101 15.14950815883691"
      },
      "geometry": {
        "type": "Point",
        "coordinates": [
          163.15514572616615,
          -27.433349236239785
        ]
      }
    },
    {
      "type": "Feature",
      "properties": {
        "norad_id": 34861,
        "name": "COSMOS 2251 DEB",
        "group": "cosmos-2251-debris",
        "lat": 6.420647863425171,
        "lon": 47.73964845684216,
        "alt_km": 556.0224475990326,
        "timestamp": "2025-12-15T04:01:20.847353+00:00",
        "meta_object_name": "COSMOS 2251 DEB",
        "meta_object_id": "1993-036ACF",
        "meta_epoch": "2025-12-14T04:09:57.180672",
        "meta_mean_motion": 15.0269931,
        "meta_eccentricity": 0.00072744,
        "meta_inclination": 74.0186,
        "meta_ra_of_asc_node": 47.9215,
        "meta_arg_of_pericenter": 43.3979,
        "meta_mean_anomaly": 348.2389,
        "meta_ephemeris_type": 0,
        "meta_classification_type": "U",
        "meta_norad_cat_id": 34861,
        "meta_element_set_no": 999,
        "meta_rev_at_epoch": 88114,
        "meta_bstar": 0.0023759438,
        "meta_mean_motion_dot": 0.00031847,
        "meta_mean_motion_ddot": 0,
        "tle_line1": "1 34861U 93036ACF 25348.17357848  .00031847  00000+0  23759-2 0  9998",
        "tle_line2": "2 34861  74.0186  47.9215 0007274  43.3979 348.2389 15.02699310881148"
      },
      "geometry": {
        "type": "Point",
        "coordinates": [
          47.73964845684216,
          6.420647863425171
        ]
      }
    },
    {
      "type": "Feature",
      "properties": {
        "norad_id": 34874,
        "name": "COSMOS 2251 DEB",
        "group": "cosmos-2251-debris",
        "lat": 71.5363154280678,
        "lon": -169.68763310099638,
        "alt_km": 727.1740827183148,
        "timestamp": "2025-12-15T04:01:20.847363+00:00",
        "meta_object_name": "COSMOS 2251 DEB",
        "meta_object_id": "1993-036ACM",
        "meta_epoch": "2025-12-14T05:58:36.802848",
        "meta_mean_motion": 14.36320891,
        "meta_eccentricity": 0.00509122,
        "meta_inclination": 74.0396,
        "meta_ra_of_asc_node": 70.9927,
        "meta_arg_of_pericenter": 95.8314,
        "meta_mean_anomaly": 295.7119,
        "meta_ephemeris_type": 0,
        "meta_classification_type": "U",
        "meta_norad_cat_id": 34874,
        "meta_element_set_no": 999,
        "meta_rev_at_epoch": 87066,
        "meta_bstar": 0.00095657617,
        "meta_mean_motion_dot": 2.814e-05,
        "meta_mean_motion_ddot": 0,
        "tle_line1": "1 34874U 93036ACM 25348.24903707  .00002814  00000+0  95658-3 0  9991",
        "tle_line2": "2 34874  74.0396  70.9927 0050912  95.8314 295.7119 14.36320891870666"
      },
      "geometry": {
        "type": "Point",
        "coordinates": [
          -169.68763310099638,
          71.5363154280678
        ]
      }
    }
  ]
}